ERS-1                   
1 21574U 91050A   26085.93599443  .00000324  00000+0  11819-3 0  9992
2 21574  98.7868 104.6033 0032589 149.4750 210.8343 14.39462075818213
ARIANE 40 R/B           
1 21610U 91050F   26085.73788052  .00000281  00000+0  96621-4 0  9994
2 21610  98.1977 137.3317 0003651  42.8634 317.2841 14.42905564821456
INTERCOSMOS 25          
1 21819U 91086A   26085.58000560  .00001361  00000+0  25958-3 0  9992
2 21819  82.6019 299.7977 1486615  80.5409 296.0044 12.12055207498737
SL-8 R/B                
1 21876U 92008B   26085.96615593  .00000030  00000+0  15032-4 0  9995
2 21876  82.9229 254.9227 0035972  86.7236  25.9573 13.75969572711797
SL-8 R/B                
1 21938U 92020B   26085.41209479  .00000028  00000+0  13639-4 0  9998
2 21938  82.9309 141.3460 0027679 249.8780 121.0421 13.75550460703438
USA 81                  
1 21949U 92023A   26085.56434170  .00000163  00000+0  52994-4 0  9994
2 21949  85.0051 121.7033 0001874  68.1594 291.9798 14.32373245 97203
COSMOS 2219             
1 22219U 92076A   26085.92255089 -.00000234  00000+0 -98250-4 0  9999
2 22219  71.0627 342.0476 0018012 181.9265 178.1792 14.14091479720814
SL-16 R/B               
1 22220U 92076B   26085.66027578 -.00000001  00000+0  23477-4 0  9992
2 22220  71.0001 152.6285 0010653  64.5773  97.4300 14.16863960724230
COSMOS 2221             
1 22236U 92080A   26085.95832551  .00002465  00000+0  21562-3 0  9998
2 22236  82.5007 262.5342 0015396 131.2419 229.0132 14.96269736783378
SL-16 R/B               
1 22285U 92093B   26085.91233869  .00000268  00000+0  16174-3 0  9991
2 22285  71.0232 328.1137 0006436 276.8392  83.1998 14.15453508715598
COSMOS 2228             
1 22286U 92094A   26085.89631994  .00002605  00000+0  22203-3 0  9998
2 22286  82.5183 220.8351 0016749 241.7494 118.2038 14.97275585778635
SL-16 R/B               
1 22566U 93016B   26085.67175405 -.00000120  00000+0 -37174-4 0  9996
2 22566  71.0078 179.5163 0012341 292.2002  67.7812 14.15305436704572
