CCSDS_OMM_VERS = 2.0
CREATION_DATE  = 
ORIGINATOR     = 

OBJECT_NAME    = ERS-1
OBJECT_ID      = 1991-050A
CENTER_NAME    = EARTH
REF_FRAME      = TEME
TIME_SYSTEM    = UTC
MEAN_ELEMENT_THEORY = SGP/SGP4

EPOCH          = 2026-03-26T22:27:49.918752
MEAN_MOTION    = 14.39462075
ECCENTRICITY   = .00325892
INCLINATION    = 98.7868
RA_OF_ASC_NODE = 104.6033
ARG_OF_PERICENTER = 149.4750
MEAN_ANOMALY   = 210.8343

EPHEMERIS_TYPE = 0
CLASSIFICATION_TYPE = U
NORAD_CAT_ID   = 21574
ELEMENT_SET_NO = 999
REV_AT_EPOCH   = 81821
BSTAR          = .11819156E-3
MEAN_MOTION_DOT = .324E-5
MEAN_MOTION_DDOT = 0

CCSDS_OMM_VERS = 2.0
CREATION_DATE  = 
ORIGINATOR     = 

OBJECT_NAME    = ARIANE 40 R/B
OBJECT_ID      = 1991-050F
CENTER_NAME    = EARTH
REF_FRAME      = TEME
TIME_SYSTEM    = UTC
MEAN_ELEMENT_THEORY = SGP/SGP4

EPOCH          = 2026-03-26T17:42:32.876928
MEAN_MOTION    = 14.42905564
ECCENTRICITY   = .00036513
INCLINATION    = 98.1977
RA_OF_ASC_NODE = 137.3317
ARG_OF_PERICENTER = 42.8634
MEAN_ANOMALY   = 317.2841

EPHEMERIS_TYPE = 0
CLASSIFICATION_TYPE = U
NORAD_CAT_ID   = 21610
ELEMENT_SET_NO = 999
REV_AT_EPOCH   = 82145
BSTAR          = .96621014E-4
MEAN_MOTION_DOT = .281E-5
MEAN_MOTION_DDOT = 0

CCSDS_OMM_VERS = 2.0
CREATION_DATE  = 
ORIGINATOR     = 

OBJECT_NAME    = INTERCOSMOS 25
OBJECT_ID      = 1991-086A
CENTER_NAME    = EARTH
REF_FRAME      = TEME
TIME_SYSTEM    = UTC
MEAN_ELEMENT_THEORY = SGP/SGP4

EPOCH          = 2026-03-26T13:55:12.483840
MEAN_MOTION    = 12.12055207
ECCENTRICITY   = .14866151
INCLINATION    = 82.6019
RA_OF_ASC_NODE = 299.7977
ARG_OF_PERICENTER = 80.5409
MEAN_ANOMALY   = 296.0044

EPHEMERIS_TYPE = 0
CLASSIFICATION_TYPE = U
NORAD_CAT_ID   = 21819
ELEMENT_SET_NO = 999
REV_AT_EPOCH   = 49873
BSTAR          = .25957611E-3
MEAN_MOTION_DOT = .1361E-4
MEAN_MOTION_DDOT = 0

CCSDS_OMM_VERS = 2.0
CREATION_DATE  = 
ORIGINATOR     = 

OBJECT_NAME    = SL-8 R/B
OBJECT_ID      = 1992-008B
CENTER_NAME    = EARTH
REF_FRAME      = TEME
TIME_SYSTEM    = UTC
MEAN_ELEMENT_THEORY = SGP/SGP4

EPOCH          = 2026-03-26T23:11:15.872352
MEAN_MOTION    = 13.75969572
ECCENTRICITY   = .00359728
INCLINATION    = 82.9229
RA_OF_ASC_NODE = 254.9227
ARG_OF_PERICENTER = 86.7236
MEAN_ANOMALY   = 25.9573

EPHEMERIS_TYPE = 0
CLASSIFICATION_TYPE = U
NORAD_CAT_ID   = 21876
ELEMENT_SET_NO = 999
REV_AT_EPOCH   = 71179
BSTAR          = .15032016E-4
MEAN_MOTION_DOT = .3E-6
MEAN_MOTION_DDOT = 0

CCSDS_OMM_VERS = 2.0
CREATION_DATE  = 
ORIGINATOR     = 

OBJECT_NAME    = SL-8 R/B
OBJECT_ID      = 1992-020B
CENTER_NAME    = EARTH
REF_FRAME      = TEME
TIME_SYSTEM    = UTC
MEAN_ELEMENT_THEORY = SGP/SGP4

EPOCH          = 2026-03-26T09:53:24.989856
MEAN_MOTION    = 13.75550460
ECCENTRICITY   = .00276791
INCLINATION    = 82.9309
RA_OF_ASC_NODE = 141.3460
ARG_OF_PERICENTER = 249.8780
MEAN_ANOMALY   = 121.0421

EPHEMERIS_TYPE = 0
CLASSIFICATION_TYPE = U
NORAD_CAT_ID   = 21938
ELEMENT_SET_NO = 999
REV_AT_EPOCH   = 70343
BSTAR          = .13639403E-4
MEAN_MOTION_DOT = .28E-6
MEAN_MOTION_DDOT = 0

CCSDS_OMM_VERS = 2.0
CREATION_DATE  = 
ORIGINATOR     = 

OBJECT_NAME    = USA 81
OBJECT_ID      = 1992-023A
CENTER_NAME    = EARTH
REF_FRAME      = TEME
TIME_SYSTEM    = UTC
MEAN_ELEMENT_THEORY = SGP/SGP4

EPOCH          = 2026-03-26T13:32:39.122880
MEAN_MOTION    = 14.32373245
ECCENTRICITY   = .00018744
INCLINATION    = 85.0051
RA_OF_ASC_NODE = 121.7033
ARG_OF_PERICENTER = 68.1594
MEAN_ANOMALY   = 291.9798

EPHEMERIS_TYPE = 0
CLASSIFICATION_TYPE = U
NORAD_CAT_ID   = 21949
ELEMENT_SET_NO = 999
REV_AT_EPOCH   = 9720
BSTAR          = .52994091E-4
MEAN_MOTION_DOT = .163E-5
MEAN_MOTION_DDOT = 0

CCSDS_OMM_VERS = 2.0
CREATION_DATE  = 
ORIGINATOR     = 

OBJECT_NAME    = COSMOS 2219
OBJECT_ID      = 1992-076A
CENTER_NAME    = EARTH
REF_FRAME      = TEME
TIME_SYSTEM    = UTC
MEAN_ELEMENT_THEORY = SGP/SGP4

EPOCH          = 2026-03-26T22:08:28.396896
MEAN_MOTION    = 14.14091479
ECCENTRICITY   = .0018012
INCLINATION    = 71.0627
RA_OF_ASC_NODE = 342.0476
ARG_OF_PERICENTER = 181.9265
MEAN_ANOMALY   = 178.1792

EPHEMERIS_TYPE = 0
CLASSIFICATION_TYPE = U
NORAD_CAT_ID   = 22219
ELEMENT_SET_NO = 999
REV_AT_EPOCH   = 72081
BSTAR          = -.98249773E-4
MEAN_MOTION_DOT = -.234E-5
MEAN_MOTION_DDOT = 0

CCSDS_OMM_VERS = 2.0
CREATION_DATE  = 
ORIGINATOR     = 

OBJECT_NAME    = SL-16 R/B
OBJECT_ID      = 1992-076B
CENTER_NAME    = EARTH
REF_FRAME      = TEME
TIME_SYSTEM    = UTC
MEAN_ELEMENT_THEORY = SGP/SGP4

EPOCH          = 2026-03-26T15:50:47.827392
MEAN_MOTION    = 14.16863960
ECCENTRICITY   = .00106532
INCLINATION    = 71.0001
RA_OF_ASC_NODE = 152.6285
ARG_OF_PERICENTER = 64.5773
MEAN_ANOMALY   = 97.4300

EPHEMERIS_TYPE = 0
CLASSIFICATION_TYPE = U
NORAD_CAT_ID   = 22220
ELEMENT_SET_NO = 999
REV_AT_EPOCH   = 72423
BSTAR          = .23476506E-4
MEAN_MOTION_DOT = -.1E-7
MEAN_MOTION_DDOT = 0

CCSDS_OMM_VERS = 2.0
CREATION_DATE  = 
ORIGINATOR     = 

OBJECT_NAME    = COSMOS 2221
OBJECT_ID      = 1992-080A
CENTER_NAME    = EARTH
REF_FRAME      = TEME
TIME_SYSTEM    = UTC
MEAN_ELEMENT_THEORY = SGP/SGP4

EPOCH          = 2026-03-26T22:59:59.324064
MEAN_MOTION    = 14.96269736
ECCENTRICITY   = .00153964
INCLINATION    = 82.5007
RA_OF_ASC_NODE = 262.5342
ARG_OF_PERICENTER = 131.2419
MEAN_ANOMALY   = 229.0132

EPHEMERIS_TYPE = 0
CLASSIFICATION_TYPE = U
NORAD_CAT_ID   = 22236
ELEMENT_SET_NO = 999
REV_AT_EPOCH   = 78337
BSTAR          = .21562259E-3
MEAN_MOTION_DOT = .2465E-4
MEAN_MOTION_DDOT = 0

CCSDS_OMM_VERS = 2.0
CREATION_DATE  = 
ORIGINATOR     = 

OBJECT_NAME    = SL-16 R/B
OBJECT_ID      = 1992-093B
CENTER_NAME    = EARTH
REF_FRAME      = TEME
TIME_SYSTEM    = UTC
MEAN_ELEMENT_THEORY = SGP/SGP4

EPOCH          = 2026-03-26T21:53:46.062816
MEAN_MOTION    = 14.15453508
ECCENTRICITY   = .00064366
INCLINATION    = 71.0232
RA_OF_ASC_NODE = 328.1137
ARG_OF_PERICENTER = 276.8392
MEAN_ANOMALY   = 83.1998

EPHEMERIS_TYPE = 0
CLASSIFICATION_TYPE = U
NORAD_CAT_ID   = 22285
ELEMENT_SET_NO = 999
REV_AT_EPOCH   = 71559
BSTAR          = .16173994E-3
MEAN_MOTION_DOT = .268E-5
MEAN_MOTION_DDOT = 0

CCSDS_OMM_VERS = 2.0
CREATION_DATE  = 
ORIGINATOR     = 

OBJECT_NAME    = COSMOS 2228
OBJECT_ID      = 1992-094A
CENTER_NAME    = EARTH
REF_FRAME      = TEME
TIME_SYSTEM    = UTC
MEAN_ELEMENT_THEORY = SGP/SGP4

EPOCH          = 2026-03-26T21:30:42.042816
MEAN_MOTION    = 14.97275585
ECCENTRICITY   = .00167496
INCLINATION    = 82.5183
RA_OF_ASC_NODE = 220.8351
ARG_OF_PERICENTER = 241.7494
MEAN_ANOMALY   = 118.2038

EPHEMERIS_TYPE = 0
CLASSIFICATION_TYPE = U
NORAD_CAT_ID   = 22286
ELEMENT_SET_NO = 999
REV_AT_EPOCH   = 77863
BSTAR          = .22203132E-3
MEAN_MOTION_DOT = .2605E-4
MEAN_MOTION_DDOT = 0

CCSDS_OMM_VERS = 2.0
CREATION_DATE  = 
ORIGINATOR     = 

OBJECT_NAME    = SL-16 R/B
OBJECT_ID      = 1993-016B
CENTER_NAME    = EARTH
REF_FRAME      = TEME
TIME_SYSTEM    = UTC
MEAN_ELEMENT_THEORY = SGP/SGP4

EPOCH          = 2026-03-26T16:07:19.549920
MEAN_MOTION    = 14.15305436
ECCENTRICITY   = .0012341
INCLINATION    = 71.0078
RA_OF_ASC_NODE = 179.5163
ARG_OF_PERICENTER = 292.2002
MEAN_ANOMALY   = 67.7812

EPHEMERIS_TYPE = 0
CLASSIFICATION_TYPE = U
NORAD_CAT_ID   = 22566
ELEMENT_SET_NO = 999
REV_AT_EPOCH   = 70457
BSTAR          = -.37174357E-4
MEAN_MOTION_DOT = -.12E-5
MEAN_MOTION_DDOT = 0

